OBJECT_NAME,OBJECT_ID,EPOCH,MEAN_MOTION,ECCENTRICITY,INCLINATION,RA_OF_ASC_NODE,ARG_OF_PERICENTER,MEAN_ANOMALY,EPHEMERIS_TYPE,CLASSIFICATION_TYPE,NORAD_CAT_ID,ELEMENT_SET_NO,REV_AT_EPOCH,BSTAR,MEAN_MOTION_DOT,MEAN_MOTION_DDOT
DONGPO 10,2022-167H,2026-05-18T21:58:14.143008,15.33804071,.0004635,97.6925,307.8335,202.4847,157.6192,0,U,54689,999,19087,.2089465E-3,.6748E-4,0
JILIN-1 GAOFEN 03D48,2022-167P,2026-05-18T22:15:33.156576,15.34540676,.00059067,97.6859,307.2149,209.9948,150.0957,0,U,54695,999,19090,.21166727E-3,.7E-4,0
STAR VIBE,2023-001A,2026-05-18T21:45:53.384832,15.41748140,.00052453,97.3183,203.2689,202.3888,157.7131,0,U,55009,999,18771,.22802917E-3,.9558E-4,0
BRO-8,2023-001C,2026-05-18T23:03:47.771712,15.47165926,.0005601,97.3228,203.7631,209.2996,150.7941,0,U,55011,999,18768,.38478963E-3,.19478E-3,0
CONNECTA T1.2,2023-001D,2026-05-18T22:01:36.830496,15.48447130,.00064994,97.3286,209.1357,185.4662,174.6519,0,U,55012,999,18801,.51919502E-3,.27543E-3,0
BIRKELAND,2023-001G,2026-05-18T23:13:31.095264,15.39516930,.00064217,97.3355,206.8731,195.1718,164.9336,0,U,55015,999,18785,.1561382E-3,.605E-4,0
ION SCV-008,2023-001AU,2026-05-18T23:20:28.948992,15.28179461,.00164562,97.5698,234.8136,114.4579,245.8379,0,U,55051,999,18687,.16492876E-3,.4468E-4,0
ION SCV-007,2023-001BD,2026-05-18T03:06:49.256064,14.77523044,.00137348,97.9022,201.7387,75.2347,285.0385,0,U,55060,999,18181,.45831197E-4,.276E-5,0
HUYGENS,2023-001CN,2026-05-18T23:13:38.097984,15.39516698,.00098469,97.3260,206.1408,178.1434,181.9850,0,U,55093,999,18787,.16195426E-3,.6285E-4,0
SHARJAHSAT-1,2023-001CZ,2026-05-18T21:41:08.304576,15.47908047,.00057608,97.3184,207.2873,191.5463,168.5656,0,U,55104,999,18796,.24327952E-3,.12592E-3,0
HORUS 1,2023-025A,2026-05-18T22:09:42.184224,15.23257684,.0000978,97.3467,214.1321,134.3288,225.8030,0,U,55690,999,17959,.15402531E-3,.358E-4,0
HORUS 2,2023-032A,2026-05-18T23:01:17.909184,15.23440194,.00030291,97.3538,214.9438,134.5707,225.5778,0,U,55844,999,17703,.1692359E-3,.3962E-4,0
GLOBAL-19,2023-041B,2026-05-18T08:43:44.220000,15.38378725,.00051616,42.0031,15.8856,143.8114,216.3076,0,U,55982,999,17733,.21991859E-3,.8255E-4,0
BRO-9,2023-054H,2026-05-18T12:46:57.743328,15.83205814,.00079869,97.2976,54.8061,120.5153,239.6905,0,U,56185,999,17437,.70887493E-3,.154493E-2,0
ION SCV-010,2023-054Q,2026-05-18T06:14:01.138560,15.25910519,.00115379,97.3817,28.1432,316.9924,43.0412,0,U,56192,999,17163,.11691048E-3,.2929E-4,0
TELEOS-2,2023-057C,2026-05-18T13:30:30.695328,14.96422691,.00007338,9.9889,59.8684,263.5129,96.5001,0,U,56310,999,16835,.24477357E-3,.3541E-4,0
SNIPE 4,2023-072B,2026-05-18T22:36:32.619744,15.41107878,.00069968,97.5272,344.0442,77.9875,282.2155,0,U,56744,999,16560,.34415072E-3,.14173E-3,0
SNIPE 2,2023-072C,2026-05-18T22:29:44.982816,15.45266190,.00064012,97.5268,346.8877,102.3147,257.8819,0,U,56745,999,16572,.34947872E-3,.16559E-3,0
2023-072G,2023-072G,2026-05-18T22:35:52.219968,15.48818957,.00056122,97.4924,345.6666,93.9827,266.2065,0,U,56749,999,16593,.36542094E-3,.19585E-3,0
GEISAT PRECURSOR,2023-084C,2026-05-18T22:31:19.165728,15.34209961,.00072341,97.6189,278.9457,92.5514,267.6557,0,U,56934,999,16304,.15946797E-3,.5199E-4,0
BLACKJACK ACES-3,2023-084U,2026-05-18T23:25:02.466336,15.18267296,.00040424,97.6176,273.9561,104.1417,256.0266,0,U,56950,999,16273,.17666925E-3,.355E-4,0
BLACKJACK ACES-2,2023-084Z,2026-05-18T21:59:30.997536,15.18336376,.00026555,97.6173,273.9815,92.2252,267.9286,0,U,56955,999,16273,.1833308E-3,.3694E-4,0
BLACKJACK ACES-1,2023-084AA,2026-05-18T21:42:02.695968,15.18188115,.0001522,97.6164,273.7466,95.5944,264.5463,0,U,56956,999,11245,.22272622E-3,.4483E-4,0
ION SCV-011,2023-084AB,2026-05-18T11:30:47.217888,15.28526327,.00082376,98.1378,323.0145,134.5389,225.6523,0,U,56957,999,16127,.12659214E-3,.3428E-4,0
GHOST-3,2023-084AC,2026-05-18T20:51:04.788288,15.46848325,.00067862,97.6187,285.8983,50.1775,310.0071,0,U,56958,999,16348,.22923398E-3,.11427E-3,0
TOMORROW-R2,2023-084AG,2026-05-18T09:56:12.644736,15.89871711,.00021469,97.5931,298.7726,271.8747,88.2279,0,U,56962,999,16430,.44334591E-3,.130299E-2,.8395069E-5
AFR-1,2023-084AJ,2026-05-18T21:39:12.134592,15.28277175,.00120237,97.6236,274.9019,84.0991,276.1618,0,U,56964,999,16275,.11763794E-3,.3167E-4,0
METEOR-M2 3,2023-091A,2026-05-18T22:33:00.761760,14.24044039,.00028248,98.6098,194.5132,248.5563,111.5315,0,U,57166,999,15035,.19879898E-4,.2E-7,0
UMKA 1 (RS40S),2023-091G,2026-05-18T22:37:24.373344,15.20447900,.00119886,97.5065,197.7574,215.1909,144.8535,0,U,57172,999,15956,.16837191E-3,.3609E-4,0
2023-091H,2023-091H,2026-05-18T21:58:36.391008,15.27941371,.00094155,97.5060,201.8836,207.7323,152.3416,0,U,57173,999,15983,.27662499E-3,.7476E-4,0
