DONGPO 10               
1 54689U 22167H   26138.91544147  .00006748  00000+0  20895-3 0  9996
2 54689  97.6925 307.8335 0004635 202.4847 157.6192 15.33804071190874
JILIN-1 GAOFEN 03D48    
1 54695U 22167P   26138.92746709  .00007000  00000+0  21167-3 0  9997
2 54695  97.6859 307.2149 0005906 209.9948 150.0957 15.34540676190909
STAR VIBE               
1 55009U 23001A   26138.90686788  .00009558  00000+0  22803-3 0  9991
2 55009  97.3183 203.2689 0005245 202.3888 157.7131 15.41748140187713
BRO-8                   
1 55011U 23001C   26138.96096958  .00019478  00000+0  38479-3 0  9992
2 55011  97.3228 203.7631 0005601 209.2996 150.7941 15.47165926187689
CONNECTA T1.2           
1 55012U 23001D   26138.91778739  .00027543  00000+0  51920-3 0  9990
2 55012  97.3286 209.1357 0006499 185.4662 174.6519 15.48447130188015
BIRKELAND               
1 55015U 23001G   26138.96772101  .00006050  00000+0  15614-3 0  9995
2 55015  97.3355 206.8731 0006421 195.1718 164.9336 15.39516930187855
ION SCV-008             
1 55051U 23001AU  26138.97255728  .00004468  00000+0  16493-3 0  9994
2 55051  97.5698 234.8136 0016456 114.4579 245.8379 15.28179461186874
ION SCV-007             
1 55060U 23001BD  26138.12973676  .00000276  00000+0  45831-4 0  9992
2 55060  97.9022 201.7387 0013734  75.2347 285.0385 14.77523044181818
HUYGENS                 
1 55093U 23001CN  26138.96780206  .00006285  00000+0  16195-3 0  9991
2 55093  97.3260 206.1408 0009846 178.1434 181.9850 15.39516698187873
SHARJAHSAT-1            
1 55104U 23001CZ  26138.90356834  .00012592  00000+0  24328-3 0  9999
2 55104  97.3184 207.2873 0005760 191.5463 168.5656 15.47908047187968
HORUS 1                 
1 55690U 23025A   26138.92340491  .00003580  00000+0  15403-3 0  9990
2 55690  97.3467 214.1321 0000978 134.3288 225.8030 15.23257684179594
HORUS 2                 
1 55844U 23032A   26138.95923506  .00003962  00000+0  16924-3 0  9999
2 55844  97.3538 214.9438 0003029 134.5707 225.5778 15.23440194177032
GLOBAL-19               
1 55982U 23041B   26138.36370625  .00008255  00000+0  21992-3 0  9996
2 55982  42.0031  15.8856 0005161 143.8114 216.3076 15.38378725177334
BRO-9                   
1 56185U 23054H   26138.53261277  .00154493  00000+0  70887-3 0  9990
2 56185  97.2976  54.8061 0007986 120.5153 239.6905 15.83205814174371
ION SCV-010             
1 56192U 23054Q   26138.25973540  .00002929  00000+0  11691-3 0  9994
2 56192  97.3817  28.1432 0011537 316.9924  43.0412 15.25910519171631
TELEOS-2                
1 56310U 23057C   26138.56285527  .00003541  00000+0  24477-3 0  9991
2 56310   9.9889  59.8684 0000733 263.5129  96.5001 14.96422691168359
SNIPE 4                 
1 56744U 23072B   26138.94204421  .00014173  00000+0  34415-3 0  9991
2 56744  97.5272 344.0442 0006996  77.9875 282.2155 15.41107878165609
SNIPE 2                 
1 56745U 23072C   26138.93732619  .00016559  00000+0  34948-3 0  9997
2 56745  97.5268 346.8877 0006401 102.3147 257.8819 15.45266190165728
2023-072G               
1 56749U 23072G   26138.94157662  .00019585  00000+0  36542-3 0  9995
2 56749  97.4924 345.6666 0005612  93.9827 266.2065 15.48818957165933
GEISAT PRECURSOR        
1 56934U 23084C   26138.93841627  .00005199  00000+0  15947-3 0  9996
2 56934  97.6189 278.9457 0007234  92.5514 267.6557 15.34209961163045
BLACKJACK ACES-3        
1 56950U 23084U   26138.97572299  .00003550  00000+0  17667-3 0  9994
2 56950  97.6176 273.9561 0004042 104.1417 256.0266 15.18267296162737
BLACKJACK ACES-2        
1 56955U 23084Z   26138.91633099  .00003694  00000+0  18333-3 0  9999
2 56955  97.6173 273.9815 0002655  92.2252 267.9286 15.18336376162732
BLACKJACK ACES-1        
1 56956U 23084AA  26138.90419787  .00004483  00000+0  22273-3 0  9990
2 56956  97.6164 273.7466 0001522  95.5944 264.5463 15.18188115112459
ION SCV-011             
1 56957U 23084AB  26138.47971317  .00003428  00000+0  12659-3 0  9990
2 56957  98.1378 323.0145 0008237 134.5389 225.6523 15.28526327161274
GHOST-3                 
1 56958U 23084AC  26138.86880542  .00011427  00000+0  22923-3 0  9996
2 56958  97.6187 285.8983 0006786  50.1775 310.0071 15.46848325163488
TOMORROW-R2             
1 56962U 23084AG  26138.41403524  .00130299  83951-5  44335-3 0  9995
2 56962  97.5931 298.7726 0002146 271.8747  88.2279 15.89871711164302
AFR-1                   
1 56964U 23084AJ  26138.90222378  .00003167  00000+0  11764-3 0  9998
2 56964  97.6236 274.9019 0012023  84.0991 276.1618 15.28277175162753
METEOR-M2 3             
1 57166U 23091A   26138.93959215  .00000002  00000+0  19880-4 0  9994
2 57166  98.6098 194.5132 0002824 248.5563 111.5315 14.24044039150353
UMKA 1 (RS40S)          
1 57172U 23091G   26138.94264321  .00003609  00000+0  16837-3 0  9993
2 57172  97.5065 197.7574 0011988 215.1909 144.8535 15.20447900159568
2023-091H               
1 57173U 23091H   26138.91569897  .00007476  00000+0  27662-3 0  9991
2 57173  97.5060 201.8836 0009415 207.7323 152.3416 15.27941371159831
